0 IRIDIUM 33 DEB
1 37562U 97051XX  13282.35431557  .00001260  00000-0  44442-3 0  2469
2 37562 086.3870 130.8068 0033671 006.9699 353.1960 14.33724361222896
0 IRIDIUM 33 DEB
1 37562U 97051XX  13286.89078288  .00001310  00000-0  46208-3 0  2480
2 37562 086.3835 128.9036 0033899 351.3655 008.7022 14.33737345223542
0 IRIDIUM 33 DEB
1 37562U 97051XX  13290.79909274  .00001339  00000-0  47275-3 0  2512
2 37562 086.3867 127.2708 0033395 339.4539 020.5333 14.33748385224100
0 IRIDIUM 33 DEB
1 37562U 97051XX  13291.28762950  .00001396  00000-0  49260-3 0  2525
2 37562 086.3819 127.0581 0034978 336.8397 023.1770 14.33751744224179
0 IRIDIUM 33 DEB
1 37562U 97051XX  13292.26469032  .00001422  00000-0  50304-3 0  2531
2 37562 086.3923 126.6619 0029756 336.9399 023.0845 14.33755423224319
0 IRIDIUM 33 DEB
1 37562U 97051XX  13295.26567099  .00001503  00000-0  53120-3 0  2546
2 37562 086.3860 125.4029 0032468 326.8871 033.0425 14.33766258224748
